COSMOS 2509 (RODNIK-S *)
1 40922U 15050C   26138.18210634 -.00000066  00000+0 -54579-3 0  9999
2 40922  82.4858  96.9656 0015718 103.8247 256.4582 12.42882475483158
LINGQIAO VIDEO A        
1 40959U 15057B   26138.22210325  .00000592  00000+0  90002-4 0  9992
2 40959  97.6614 134.5044 0017211  12.4157 347.7474 14.77347302570988
LINGQIAO VIDEO B        
1 40960U 15057C   26138.20092713  .00000041  00000+0  12476-4 0  9999
2 40960  97.6580 135.6559 0017348  12.5717 347.5924 14.77450371571024
JILIN-1                 
1 40961U 15057D   26138.16007625  .00000505  00000+0  76333-4 0  9990
2 40961  97.6510 139.0196 0017102   6.8965 353.2478 14.78105229571176
FOX-1A (AO-85)          
1 40967U 15058D   26138.10005874  .00002278  00000+0  21248-3 0  9998
2 40967  64.7765  12.4727 0129183  68.3958 293.0860 14.90778967109083
SINOD-D 1               
1 40968U 15058E   26137.32323242  .00003096  00000+0  25586-3 0  9992
2 40968  64.7761 355.5486 0117659  65.4694 295.8632 14.95649294112045
ELEKTRO-L 2             
1 41105U 15074A   26137.16789829 -.00000111  00000+0  00000+0 0  9999
2 41105   6.6158  70.8948 0001502 257.5246 312.3954  1.00271972 38191
DAMPE                   
1 41173U 15078A   26138.16362953  .00000822  00000+0  30261-4 0  9999
2 41173  97.4560 143.4847 0011901 174.0818 186.0565 15.30702769579957
ORBCOMM FM114           
1 41179U 15081A   26138.04936175  .00000158  00000+0  69751-4 0  9997
2 41179  47.0031 144.4878 0001483  35.6790 324.4195 14.58820734553352
ORBCOMM FM110           
1 41182U 15081D   26138.03805662  .00000358  00000+0  11210-3 0  9994
2 41182  47.0003 143.9904 0004025 291.4907  68.5550 14.58827216553225
ORBCOMM FM112           
1 41184U 15081F   26138.14591389  .00000317  00000+0  10335-3 0  9998
2 41184  47.0001  52.2965 0002509  58.4727 301.6403 14.58853874554565
ORBCOMM FM113           
1 41185U 15081G   26138.12171938  .00000194  00000+0  77331-4 0  9994
2 41185  47.0015  52.7738 0001112  46.3597 313.7381 14.58821506554548
ORBCOMM FM108           
1 41187U 15081J   26137.81034347  .00000328  00000+0  10576-3 0  9999
2 41187  47.0058 325.8131 0002028  56.3899 303.7180 14.58823916555646
ORBCOMM FM117           
1 41188U 15081K   26137.77579599  .00000307  00000+0  10130-3 0  9991
2 41188  47.0022 324.6195 0002475  64.4683 295.6458 14.58821585555683
ORBCOMM FM116           
1 41189U 15081L   26138.03042801  .00000313  00000+0  10260-3 0  9994
2 41189  47.0030  53.2031 0002266 291.2411  68.8233 14.58831352554531
HORYU-4                 
1 41340U 16012D   26137.79861698  .00139695  00000+0  72901-3 0  9999
2 41340  30.9884 299.0907 0004801  67.1367 292.9797 15.79340876565983
ZIYUAN 3-02 (ZY 3-02)   
1 41556U 16033A   26138.13118749  .00003865  00000+0  17453-3 0  9992
2 41556  97.3839 214.4810 0013372  46.3561 313.8782 15.21486154553410
CARTOSAT-2C             
1 41599U 16040A   26138.15844414  .00002970  00000+0  14418-3 0  9998
2 41599  97.4503 198.5446 0008563 232.7829 127.2624 15.19229566549154
LAPAN-A3                
1 41603U 16040E   26138.23042299  .00002224  00000+0  72208-4 0  9998
2 41603  97.1485 135.3668 0012081 118.2239 242.0225 15.32900383550225
GAOFEN-3                
1 41727U 16049A   26138.18200152 -.00000122  00000+0 -23772-4 0  9991
2 41727  98.4013 146.4204 0000948  84.7099 275.4199 14.42210714514325
CAS-2T & KS-1Q          
1 41847U 16066G   26138.17996770  .00000655  00000+0  10168-3 0  9993
2 41847  98.3826 214.2564 0341315 220.4591 137.0764 14.44597581500467
YUNHAI-1 01             
1 41857U 16068A   26138.13591703  .00000283  00000+0  12009-3 0  9992
2 41857  98.5835 149.4217 0006476 116.1120 244.0731 14.32717091497521
RESOURCESAT-2A          
1 41877U 16074A   26138.15828220 -.00000002  00000+0  19011-4 0  9991
2 41877  98.7536 211.9060 0002809 141.9883 218.1493 14.21606103490037
TANSAT                  
1 41898U 16081A   26138.16108969  .00000020  00000+0  14675-4 0  9994
2 41898  98.5360 137.5324 0021577  44.6159 315.6772 14.59922462500245
JILIN-1 03              
1 41914U 17002B   26138.22397888  .00008339  00000+0  20556-3 0  9999
2 41914  97.1951 145.7485 0003577 283.4413  76.6435 15.40799867517240
