OBJECT_NAME,OBJECT_ID,EPOCH,MEAN_MOTION,ECCENTRICITY,INCLINATION,RA_OF_ASC_NODE,ARG_OF_PERICENTER,MEAN_ANOMALY,EPHEMERIS_TYPE,CLASSIFICATION_TYPE,NORAD_CAT_ID,ELEMENT_SET_NO,REV_AT_EPOCH,BSTAR,MEAN_MOTION_DOT,MEAN_MOTION_DDOT
COSMOS 2509 (RODNIK-S 15),2015-050C,2026-05-18T04:22:13.987776,12.42882475,.0015718,82.4858,96.9656,103.8247,256.4582,0,U,40922,999,48315,-.54579E-3,-.66E-6,0
LINGQIAO VIDEO A,2015-057B,2026-05-18T05:19:49.720800,14.77347302,.0017211,97.6614,134.5044,12.4157,347.7474,0,U,40959,999,57098,.90002E-4,.592E-5,0
LINGQIAO VIDEO B,2015-057C,2026-05-18T04:49:20.104032,14.77450371,.0017348,97.6580,135.6559,12.5717,347.5924,0,U,40960,999,57102,.12476E-4,.41E-6,0
JILIN-1,2015-057D,2026-05-18T03:50:30.588000,14.78105229,.0017102,97.6510,139.0196,6.8965,353.2478,0,U,40961,999,57117,.76333E-4,.505E-5,0
FOX-1A (AO-85),2015-058D,2026-05-18T02:24:05.075136,14.90778967,.0129183,64.7765,12.4727,68.3958,293.0860,0,U,40967,999,10908,.21248E-3,.2278E-4,0
SINOD-D 1,2015-058E,2026-05-17T07:45:27.281088,14.95649294,.01176591,64.7761,355.5486,65.4694,295.8632,0,U,40968,999,11204,.25586287E-3,.3096E-4,0
ELEKTRO-L 2,2015-074A,2026-05-17T04:01:46.412256,1.00271972,.00015023,6.6158,70.8948,257.5246,312.3954,0,U,41105,999,3819,0,-.111E-5,0
DAMPE,2015-078A,2026-05-18T03:55:37.591392,15.30702769,.0011901,97.4560,143.4847,174.0818,186.0565,0,U,41173,999,57995,.30261E-4,.822E-5,0
ORBCOMM FM114,2015-081A,2026-05-18T01:11:04.855200,14.58820734,.0001483,47.0031,144.4878,35.6790,324.4195,0,U,41179,999,55335,.69751E-4,.158E-5,0
ORBCOMM FM110,2015-081D,2026-05-18T00:54:48.091968,14.58827216,.0004025,47.0003,143.9904,291.4907,68.5550,0,U,41182,999,55322,.1121E-3,.358E-5,0
ORBCOMM FM112,2015-081F,2026-05-18T03:30:06.960096,14.58853874,.0002509,47.0001,52.2965,58.4727,301.6403,0,U,41184,999,55456,.10335E-3,.317E-5,0
ORBCOMM FM113,2015-081G,2026-05-18T02:55:16.554432,14.58821506,.0001112,47.0015,52.7738,46.3597,313.7381,0,U,41185,999,55454,.77331E-4,.194E-5,0
ORBCOMM FM108,2015-081J,2026-05-17T19:26:53.675808,14.58823916,.00020287,47.0058,325.8131,56.3899,303.7180,0,U,41187,999,55564,.10575972E-3,.328E-5,0
ORBCOMM FM117,2015-081K,2026-05-17T18:37:08.773536,14.58821585,.00024756,47.0022,324.6195,64.4683,295.6458,0,U,41188,999,55568,.10129815E-3,.307E-5,0
ORBCOMM FM116,2015-081L,2026-05-18T00:43:48.980064,14.58831352,.0002266,47.0030,53.2031,291.2411,68.8233,0,U,41189,999,55453,.1026E-3,.313E-5,0
HORYU-4,2016-012D,2026-05-17T19:10:00.507072,15.79340876,.00048019,30.9884,299.0907,67.1367,292.9797,0,U,41340,999,56598,.7290076E-3,.139695E-2,0
ZIYUAN 3-02 (ZY 3-02),2016-033A,2026-05-18T03:08:54.599136,15.21486154,.0013372,97.3839,214.4810,46.3561,313.8782,0,U,41556,999,55341,.17453E-3,.3865E-4,0
CARTOSAT-2C,2016-040A,2026-05-18T03:48:09.573696,15.19229566,.0008563,97.4503,198.5446,232.7829,127.2624,0,U,41599,999,54915,.14418E-3,.297E-4,0
LAPAN-A3,2016-040E,2026-05-18T05:31:48.546336,15.32900383,.0012081,97.1485,135.3668,118.2239,242.0225,0,U,41603,999,55022,.72208E-4,.2224E-4,0
GAOFEN-3,2016-049A,2026-05-18T04:22:04.931328,14.42210714,.0000948,98.4013,146.4204,84.7099,275.4199,0,U,41727,999,51432,-.23772E-4,-.122E-5,0
CAS-2T & KS-1Q,2016-066G,2026-05-18T04:19:09.209280,14.44597581,.0341315,98.3826,214.2564,220.4591,137.0764,0,U,41847,999,50046,.10168E-3,.655E-5,0
YUNHAI-1 01,2016-068A,2026-05-18T03:15:43.231392,14.32717091,.0006476,98.5835,149.4217,116.1120,244.0731,0,U,41857,999,49752,.12009E-3,.283E-5,0
RESOURCESAT-2A,2016-074A,2026-05-18T03:47:55.582080,14.21606103,.0002809,98.7536,211.9060,141.9883,218.1493,0,U,41877,999,49003,.19011E-4,-.2E-7,0
TANSAT,2016-081A,2026-05-18T03:51:58.149216,14.59922462,.0021577,98.5360,137.5324,44.6159,315.6772,0,U,41898,999,50024,.14675E-4,.2E-6,0
JILIN-1 03,2017-002B,2026-05-18T05:22:31.775232,15.40799867,.0003577,97.1951,145.7485,283.4413,76.6435,0,U,41914,999,51724,.20556E-3,.8339E-4,0
